{
  "type": "FeatureCollection",
  "features": [
    {
      "type": "Feature",
      "properties": {
        "site_id": "bom_futuro",
        "intervention_year": 2017,
        "source": "User-provided boundary and intervention year"
      },
      "geometry": {
        "type": "Polygon",
        "coordinates": [
          [
            [
              -64.223526,
              -9.465585
            ],
            [
              -64.22351,
              -9.465332
            ],
            [
              -64.223478,
              -9.464748
            ],
            [
              -64.223489,
              -9.464457
            ],
            [
              -64.223452,
              -9.464236
            ],
            [
              -64.223359,
              -9.463576
            ],
            [
              -64.223327,
              -9.462937
            ],
            [
              -64.223263,
              -9.462843
            ],
            [
              -64.22325,
              -9.4629
            ],
            [
              -64.22303,
              -9.463231
            ],
            [
              -64.223001,
              -9.463131
            ],
            [
              -64.222857,
              -9.463264
            ],
            [
              -64.222644,
              -9.462998
            ],
            [
              -64.222497,
              -9.462971
            ],
            [
              -64.222403,
              -9.46308
            ],
            [
              -64.222246,
              -9.463061
            ],
            [
              -64.222172,
              -9.463118
            ],
            [
              -64.222112,
              -9.463064
            ],
            [
              -64.222046,
              -9.46323
            ],
            [
              -64.221807,
              -9.463083
            ],
            [
              -64.221651,
              -9.463015
            ],
            [
              -64.221537,
              -9.463047
            ],
            [
              -64.22168,
              -9.463317
            ],
            [
              -64.221717,
              -9.463478
            ],
            [
              -64.221703,
              -9.46361
            ],
            [
              -64.221601,
              -9.463701
            ],
            [
              -64.221645,
              -9.463888
            ],
            [
              -64.221695,
              -9.464025
            ],
            [
              -64.221715,
              -9.464196
            ],
            [
              -64.221723,
              -9.464437
            ],
            [
              -64.221687,
              -9.464505
            ],
            [
              -64.221743,
              -9.464646
            ],
            [
              -64.221625,
              -9.464687
            ],
            [
              -64.221564,
              -9.464707
            ],
            [
              -64.221492,
              -9.464745
            ],
            [
              -64.221514,
              -9.464824
            ],
            [
              -64.221591,
              -9.464873
            ],
            [
              -64.221702,
              -9.464938
            ],
            [
              -64.221692,
              -9.465056
            ],
            [
              -64.2217,
              -9.465163
            ],
            [
              -64.221735,
              -9.465189
            ],
            [
              -64.221828,
              -9.465236
            ],
            [
              -64.221978,
              -9.465276
            ],
            [
              -64.222072,
              -9.465368
            ],
            [
              -64.222058,
              -9.465468
            ],
            [
              -64.222174,
              -9.465547
            ],
            [
              -64.222198,
              -9.465692
            ],
            [
              -64.222208,
              -9.465771
            ],
            [
              -64.222181,
              -9.465863
            ],
            [
              -64.222154,
              -9.465946
            ],
            [
              -64.222103,
              -9.465965
            ],
            [
              -64.22211,
              -9.466019
            ],
            [
              -64.222083,
              -9.466047
            ],
            [
              -64.222061,
              -9.466066
            ],
            [
              -64.222023,
              -9.466114
            ],
            [
              -64.222011,
              -9.466163
            ],
            [
              -64.221996,
              -9.466199
            ],
            [
              -64.221973,
              -9.466318
            ],
            [
              -64.221947,
              -9.466364
            ],
            [
              -64.221968,
              -9.466409
            ],
            [
              -64.222058,
              -9.466497
            ],
            [
              -64.222046,
              -9.466546
            ],
            [
              -64.221964,
              -9.46648
            ],
            [
              -64.222097,
              -9.466648
            ],
            [
              -64.222106,
              -9.466731
            ],
            [
              -64.22218,
              -9.466759
            ],
            [
              -64.222181,
              -9.46684
            ],
            [
              -64.222189,
              -9.466891
            ],
            [
              -64.222229,
              -9.466996
            ],
            [
              -64.222213,
              -9.46703
            ],
            [
              -64.222196,
              -9.467059
            ],
            [
              -64.222174,
              -9.467104
            ],
            [
              -64.222157,
              -9.467168
            ],
            [
              -64.222224,
              -9.467218
            ],
            [
              -64.222218,
              -9.467253
            ],
            [
              -64.222208,
              -9.467281
            ],
            [
              -64.222169,
              -9.467323
            ],
            [
              -64.222197,
              -9.467368
            ],
            [
              -64.222164,
              -9.467419
            ],
            [
              -64.222135,
              -9.467472
            ],
            [
              -64.222103,
              -9.46753
            ],
            [
              -64.222099,
              -9.467562
            ],
            [
              -64.222035,
              -9.467777
            ],
            [
              -64.222036,
              -9.46787
            ],
            [
              -64.222187,
              -9.468057
            ],
            [
              -64.222209,
              -9.468098
            ],
            [
              -64.222357,
              -9.468148
            ],
            [
              -64.222778,
              -9.468078
            ],
            [
              -64.222716,
              -9.467946
            ],
            [
              -64.222754,
              -9.467934
            ],
            [
              -64.222748,
              -9.467891
            ],
            [
              -64.222777,
              -9.467903
            ],
            [
              -64.222897,
              -9.46787
            ],
            [
              -64.222946,
              -9.467779
            ],
            [
              -64.222755,
              -9.467577
            ],
            [
              -64.222866,
              -9.467487
            ],
            [
              -64.222974,
              -9.467574
            ],
            [
              -64.223012,
              -9.46753
            ],
            [
              -64.223031,
              -9.467459
            ],
            [
              -64.223081,
              -9.467479
            ],
            [
              -64.223152,
              -9.467495
            ],
            [
              -64.223211,
              -9.467472
            ],
            [
              -64.223261,
              -9.46744
            ],
            [
              -64.223265,
              -9.467379
            ],
            [
              -64.223336,
              -9.467347
            ],
            [
              -64.22345,
              -9.467403
            ],
            [
              -64.223511,
              -9.467386
            ],
            [
              -64.223526,
              -9.467398
            ],
            [
              -64.223562,
              -9.467401
            ],
            [
              -64.223632,
              -9.467484
            ],
            [
              -64.223652,
              -9.467332
            ],
            [
              -64.223657,
              -9.467252
            ],
            [
              -64.22366,
              -9.466965
            ],
            [
              -64.223621,
              -9.466726
            ],
            [
              -64.223599,
              -9.466377
            ],
            [
              -64.223621,
              -9.466071
            ],
            [
              -64.223596,
              -9.465934
            ],
            [
              -64.223526,
              -9.465585
            ]
          ]
        ]
      }
    }
  ]
}
