{
  "type": "FeatureCollection",
  "features": [
    {
      "type": "Feature",
      "properties": {
        "site_id": "campeche_mexico",
        "intervention_year": 2021,
        "source": "User-provided boundary and intervention year"
      },
      "geometry": {
        "type": "Polygon",
        "coordinates": [
          [
            [
              -90.143777,
              18.69088
            ],
            [
              -90.143778,
              18.690884
            ],
            [
              -90.138887,
              18.690516
            ],
            [
              -90.139468,
              18.685708
            ],
            [
              -90.139461,
              18.685707
            ],
            [
              -90.137862,
              18.685718
            ],
            [
              -90.134473,
              18.685922
            ],
            [
              -90.134225,
              18.685998
            ],
            [
              -90.133412,
              18.686807
            ],
            [
              -90.133113,
              18.686798
            ],
            [
              -90.133113,
              18.687078
            ],
            [
              -90.132776,
              18.687449
            ],
            [
              -90.132113,
              18.688115
            ],
            [
              -90.131054,
              18.689166
            ],
            [
              -90.124141,
              18.682892
            ],
            [
              -90.123883,
              18.683209
            ],
            [
              -90.123763,
              18.682887
            ],
            [
              -90.123547,
              18.683204
            ],
            [
              -90.123423,
              18.683082
            ],
            [
              -90.122781,
              18.683753
            ],
            [
              -90.122777,
              18.683994
            ],
            [
              -90.122897,
              18.684356
            ],
            [
              -90.119838,
              18.688638
            ],
            [
              -90.119091,
              18.688026
            ],
            [
              -90.117059,
              18.686351
            ],
            [
              -90.116767,
              18.686186
            ],
            [
              -90.118588,
              18.682967
            ],
            [
              -90.115621,
              18.68184
            ],
            [
              -90.11648,
              18.680771
            ],
            [
              -90.116821,
              18.680495
            ],
            [
              -90.117077,
              18.680299
            ],
            [
              -90.118265,
              18.679676
            ],
            [
              -90.11873,
              18.679523
            ],
            [
              -90.119954,
              18.679301
            ],
            [
              -90.120377,
              18.679147
            ],
            [
              -90.120633,
              18.678951
            ],
            [
              -90.121653,
              18.678285
            ],
            [
              -90.121529,
              18.678203
            ],
            [
              -90.122658,
              18.676056
            ],
            [
              -90.122923,
              18.675298
            ],
            [
              -90.122928,
              18.675058
            ],
            [
              -90.123458,
              18.673543
            ],
            [
              -90.123543,
              18.673464
            ],
            [
              -90.123601,
              18.673227
            ],
            [
              -90.123636,
              18.673175
            ],
            [
              -90.123639,
              18.673068
            ],
            [
              -90.123679,
              18.672905
            ],
            [
              -90.123686,
              18.672504
            ],
            [
              -90.123696,
              18.671863
            ],
            [
              -90.123685,
              18.671639
            ],
            [
              -90.123718,
              18.670621
            ],
            [
              -90.125771,
              18.671053
            ],
            [
              -90.127364,
              18.671318
            ],
            [
              -90.127449,
              18.671319
            ],
            [
              -90.127489,
              18.67144
            ],
            [
              -90.128079,
              18.671329
            ],
            [
              -90.128205,
              18.671331
            ],
            [
              -90.129169,
              18.671546
            ],
            [
              -90.129381,
              18.671429
            ],
            [
              -90.129422,
              18.67151
            ],
            [
              -90.132623,
              18.671238
            ],
            [
              -90.13275,
              18.67116
            ],
            [
              -90.134094,
              18.6713
            ],
            [
              -90.134598,
              18.671308
            ],
            [
              -90.134893,
              18.671273
            ],
            [
              -90.136203,
              18.670932
            ],
            [
              -90.136588,
              18.670537
            ],
            [
              -90.137838,
              18.671237
            ],
            [
              -90.138044,
              18.671481
            ],
            [
              -90.138383,
              18.671326
            ],
            [
              -90.1398,
              18.672109
            ],
            [
              -90.14001,
              18.672112
            ],
            [
              -90.140721,
              18.672323
            ],
            [
              -90.141088,
              18.672312
            ],
            [
              -90.141645,
              18.667703
            ],
            [
              -90.142307,
              18.668486
            ],
            [
              -90.142324,
              18.669762
            ],
            [
              -90.143087,
              18.67056
            ],
            [
              -90.143069,
              18.671996
            ],
            [
              -90.143406,
              18.673086
            ],
            [
              -90.143512,
              18.674088
            ],
            [
              -90.144434,
              18.674602
            ],
            [
              -90.144682,
              18.675399
            ],
            [
              -90.144399,
              18.677314
            ],
            [
              -90.144381,
              18.679503
            ],
            [
              -90.143707,
              18.682092
            ],
            [
              -90.14392,
              18.684148
            ],
            [
              -90.143477,
              18.688562
            ],
            [
              -90.143548,
              18.689679
            ],
            [
              -90.143777,
              18.69088
            ]
          ]
        ]
      }
    }
  ]
}
