{
  "type": "FeatureCollection",
  "features": [
    {
      "type": "Feature",
      "properties": {
        "site_id": "finca_rinconada",
        "intervention_year": 2022,
        "source": "User-provided boundary and intervention year"
      },
      "geometry": {
        "type": "Polygon",
        "coordinates": [
          [
            [
              -6.403487,
              38.846467
            ],
            [
              -6.404345,
              38.846735
            ],
            [
              -6.406748,
              38.848072
            ],
            [
              -6.408122,
              38.847771
            ],
            [
              -6.410611,
              38.848406
            ],
            [
              -6.411727,
              38.849342
            ],
            [
              -6.412585,
              38.849342
            ],
            [
              -6.4134,
              38.849709
            ],
            [
              -6.414044,
              38.850445
            ],
            [
              -6.414774,
              38.850745
            ],
            [
              -6.415589,
              38.851414
            ],
            [
              -6.416276,
              38.852483
            ],
            [
              -6.420868,
              38.855625
            ],
            [
              -6.420953,
              38.856427
            ],
            [
              -6.421597,
              38.856962
            ],
            [
              -6.421468,
              38.857697
            ],
            [
              -6.420438,
              38.858231
            ],
            [
              -6.419795,
              38.859134
            ],
            [
              -6.419537,
              38.860404
            ],
            [
              -6.419022,
              38.861105
            ],
            [
              -6.417864,
              38.860671
            ],
            [
              -6.41649,
              38.860704
            ],
            [
              -6.415632,
              38.860337
            ],
            [
              -6.4131,
              38.860938
            ],
            [
              -6.411727,
              38.860805
            ],
            [
              -6.409667,
              38.860771
            ],
            [
              -6.40868,
              38.861072
            ],
            [
              -6.40825,
              38.862375
            ],
            [
              -6.406233,
              38.862175
            ],
            [
              -6.404774,
              38.861941
            ],
            [
              -6.403659,
              38.860905
            ],
            [
              -6.402371,
              38.860003
            ],
            [
              -6.401084,
              38.8588
            ],
            [
              -6.400955,
              38.857931
            ],
            [
              -6.401255,
              38.856761
            ],
            [
              -6.401599,
              38.855992
            ],
            [
              -6.400569,
              38.854789
            ],
            [
              -6.399539,
              38.854255
            ],
            [
              -6.40147,
              38.845565
            ],
            [
              -6.402414,
              38.846066
            ],
            [
              -6.403487,
              38.846467
            ]
          ]
        ]
      }
    }
  ]
}
