{
  "type": "FeatureCollection",
  "features": [
    {
      "type": "Feature",
      "properties": {
        "site_id": "reforest_now_au",
        "intervention_year": 2020,
        "source": "User-provided boundary and intervention year"
      },
      "geometry": {
        "type": "Polygon",
        "coordinates": [
          [
            [
              145.654151,
              -17.251986
            ],
            [
              145.654242,
              -17.252114
            ],
            [
              145.654212,
              -17.252169
            ],
            [
              145.654256,
              -17.252256
            ],
            [
              145.654246,
              -17.252389
            ],
            [
              145.654071,
              -17.252528
            ],
            [
              145.653768,
              -17.252566
            ],
            [
              145.653568,
              -17.252425
            ],
            [
              145.653621,
              -17.25235
            ],
            [
              145.653693,
              -17.25231
            ],
            [
              145.653788,
              -17.252275
            ],
            [
              145.653872,
              -17.252215
            ],
            [
              145.653965,
              -17.252146
            ],
            [
              145.654026,
              -17.252106
            ],
            [
              145.654079,
              -17.251911
            ],
            [
              145.654151,
              -17.251986
            ]
          ]
        ]
      }
    }
  ]
}
